STARLINK-36922          
1 68123U 26044Y   26088.13410763  .00190742  00000+0  12481-2 0  9995
2 68123  97.2849  49.2720 0001826 113.9024 246.2433 15.75249637  4548
STARLINK-36938          
1 68124U 26044Z   26088.16668981  .00028257  00000+0  18996-3 0  9995
2 68124  97.2849  49.3562 0001800 104.6341 200.1312 15.75156364  4533
STARLINK-36839          
1 68125U 26044AA  26088.13516969  .00112129  00000+0  74229-3 0  9994
2 68125  97.2849  49.2704 0001336  88.1928 271.9490 15.75206018  4548
ECHOSTAR 25             
1 68126U 26045A   26088.14905973  .00000039  00000+0  00000+0 0  9992
2 68126   0.0525 281.9352 0002391 108.1952  81.1756  1.00272516   190
ICOR SV                 
1 68127U 26046A   26088.20366756  .00502996  11335-3  76049-3 0  9997
2 68127 123.0768 294.6930 0103180 222.1142 137.1968 15.94428676  2709
FIREFLY ALPHA R/B       
1 68128U 26046B   26088.03126911  .00042344  00000+0  57170-3 0  9999
2 68128 123.0941 290.3676 0016242  18.8195 341.3463 15.57252906  2656
GUOWANG GROUP 20 OBJECT*
1 68129U 26047A   26086.61766448 -.00000101  00000+0  34814-4 0  9995
2 68129  50.0073 357.5704 0001326 229.8596 130.2189 13.95400488  2083
GUOWANG GROUP 20 OBJECT*
1 68130U 26047B   26085.75628566 -.00000072  00000+0  55036-4 0  9995
2 68130  50.0066   1.0171 0000428 307.3036  52.7826 13.96591410  1957
GUOWANG GROUP 20 OBJECT*
1 68131U 26047C   26085.82615450 -.00000111  00000+0  27090-4 0  9995
2 68131  49.9996   0.7054 0000048  49.5998 310.4907 13.96862690  1970
GUOWANG GROUP 20 OBJECT*
1 68132U 26047D   26083.82212781 -.00000102  00000+0  32409-4 0  9994
2 68132  50.0048   8.7665 0002416   7.3102 352.7836 14.00513037  1680
GUOWANG GROUP 20 OBJECT*
1 68133U 26047E   26083.32146819 -.00000126  00000+0  15966-4 0  9993
2 68133  49.9979  10.8404 0003230 188.5214 171.5635 14.01339008  1620
GUOWANG GROUP 20 OBJECT*
1 68134U 26047F   26083.10517479 -.00000032  00000+0  77668-4 0  9997
2 68134  50.0123  11.6502 0000475 222.9253 137.1614 14.01903676  1585
GUOWANG GROUP 20 OBJECT*
1 68135U 26047G   26085.74432800  .00000018  00000+0  11069-3 0  9999
2 68135  50.0409   0.8903 0004806 213.0056 147.0548 14.01583953  1962
GUOWANG GROUP 20 OBJECT*
1 68136U 26047H   26084.03205513 -.00000099  00000+0  33918-4 0  9998
2 68136  49.9530   7.8688 0014532 103.7924 256.4596 14.01074305  1715
GUOWANG GROUP 20 OBJECT*
1 68137U 26047J   26082.88983446 -.00000137  00000+0  91454-5 0  9991
2 68137  50.0081  12.5219 0000175 124.6965 235.3956 14.02259904  1568
CZ-8A R/B               
1 68138U 26047K   26088.14613258 -.00000114  00000+0  21356-4 0  9996
2 68138  49.9538 350.2197 0044755 205.1421 154.7307 14.12232162  2309
